[{"OBJECT_NAME":"STARLINK-1327","OBJECT_ID":"2020-025AA","EPOCH":"2026-03-10T00:00:02.999808","MEAN_MOTION":15.54084798,"ECCENTRICITY":0.00066285,"INCLINATION":53.0481,"RA_OF_ASC_NODE":65.1345,"ARG_OF_PERICENTER":60.0228,"MEAN_ANOMALY":82.823,"EPHEMERIS_TYPE":0,"CLASSIFICATION_TYPE":"U","NORAD_CAT_ID":45555,"ELEMENT_SET_NO":999,"REV_AT_EPOCH":591,"BSTAR":0.0019393015,"MEAN_MOTION_DOT":0.00129734,"MEAN_MOTION_DDOT":0},{"OBJECT_NAME":"STARLINK-2512","OBJECT_ID":"2021-036AV","EPOCH":"2026-03-10T00:00:02.999808","MEAN_MOTION":15.25887089,"ECCENTRICITY":0.00016555,"INCLINATION":53.1399,"RA_OF_ASC_NODE":99.5161,"ARG_OF_PERICENTER":88.0612,"MEAN_ANOMALY":12.0977,"EPHEMERIS_TYPE":0,"CLASSIFICATION_TYPE":"U","NORAD_CAT_ID":48319,"ELEMENT_SET_NO":999,"REV_AT_EPOCH":574,"BSTAR":0.065509139,"MEAN_MOTION_DOT":0.01872924,"MEAN_MOTION_DDOT":0}]
